[
  {
    "COMMENT": "GENERATED VIA SPACETRACK.ORG API",
    "ORIGINATOR": "18 SPCS",
    "NORAD_CAT_ID": "43682",
    "OBJECT_NAME": "H-2A R/B",
    "OBJECT_TYPE": "ROCKET BODY",
    "CLASSIFICATION_TYPE": "U",
    "INTLDES": "18084L",
    "EPOCH": "2019-08-07 10:36:52",
    "EPOCH_MICROSECONDS": "68384",
    "MEAN_MOTION": "15.02646579",
    "ECCENTRICITY": "0.0057651",
    "INCLINATION": "98.8856",
    "RA_OF_ASC_NODE": "15.0175",
    "ARG_OF_PERICENTER": "84.15",
    "MEAN_ANOMALY": "276.6251",
    "EPHEMERIS_TYPE": "0",
    "ELEMENT_SET_NO": "999",
    "REV_AT_EPOCH": "4234",
    "BSTAR": "0.000066511",
    "MEAN_MOTION_DOT": "0.00000835",
    "MEAN_MOTION_DDOT": "0",
    "FILE": "2532521",
    "TLE_LINE0": "0 H-2A R/B",
    "TLE_LINE1": "1 43682U 18084L   19219.44226931 +.00000835 +00000-0 +66511-4 0  9996",
    "TLE_LINE2": "2 43682 098.8856 015.0175 0057651 084.1500 276.6251 15.02646579042347",
    "OBJECT_ID": "2018-084L",
    "OBJECT_NUMBER": "43682",
    "SEMIMAJOR_AXIS": "6936.876",
    "PERIOD": "95.831",
    "APOGEE": "598.733",
    "PERIGEE": "518.749",
    "DECAYED": "0"
  },
  {
    "COMMENT": "GENERATED VIA SPACETRACK.ORG API",
    "ORIGINATOR": "18 SPCS",
    "NORAD_CAT_ID": "43682",
    "OBJECT_NAME": "H-2A R/B",
    "OBJECT_TYPE": "ROCKET BODY",
    "CLASSIFICATION_TYPE": "U",
    "INTLDES": "18084L",
    "EPOCH": "2019-08-08 00:59:52",
    "EPOCH_MICROSECONDS": "59264",
    "MEAN_MOTION": "15.02647252",
    "ECCENTRICITY": "0.0057667",
    "INCLINATION": "98.8855",
    "RA_OF_ASC_NODE": "15.7038",
    "ARG_OF_PERICENTER": "82.2412",
    "MEAN_ANOMALY": "278.5312",
    "EPHEMERIS_TYPE": "0",
    "ELEMENT_SET_NO": "999",
    "REV_AT_EPOCH": "4243",
    "BSTAR": "0.000062469",
    "MEAN_MOTION_DOT": "0.0000078",
    "MEAN_MOTION_DDOT": "0",
    "FILE": "2532586",
    "TLE_LINE0": "0 H-2A R/B",
    "TLE_LINE1": "1 43682U 18084L   19220.04157476  .00000780  00000-0  62469-4 0  9998",
    "TLE_LINE2": "2 43682  98.8855  15.7038 0057667  82.2412 278.5312 15.02647252 42437",
    "OBJECT_ID": "2018-084L",
    "OBJECT_NUMBER": "43682",
    "SEMIMAJOR_AXIS": "6936.874",
    "PERIOD": "95.831",
    "APOGEE": "598.742",
    "PERIGEE": "518.736",
    "DECAYED": "0"
  },
  {
    "COMMENT": "GENERATED VIA SPACETRACK.ORG API",
    "ORIGINATOR": "18 SPCS",
    "NORAD_CAT_ID": "43682",
    "OBJECT_NAME": "H-2A R/B",
    "OBJECT_TYPE": "ROCKET BODY",
    "CLASSIFICATION_TYPE": "U",
    "INTLDES": "18084L",
    "EPOCH": "2019-08-08 23:22:18",
    "EPOCH_MICROSECONDS": "647616",
    "MEAN_MOTION": "15.02648448",
    "ECCENTRICITY": "0.0057718",
    "INCLINATION": "98.8856",
    "RA_OF_ASC_NODE": "16.7717",
    "ARG_OF_PERICENTER": "79.2501",
    "MEAN_ANOMALY": "281.5196",
    "EPHEMERIS_TYPE": "0",
    "ELEMENT_SET_NO": "999",
    "REV_AT_EPOCH": "4257",
    "BSTAR": "0.000059071",
    "MEAN_MOTION_DOT": "0.00000733",
    "MEAN_MOTION_DDOT": "0",
    "FILE": "2533199",
    "TLE_LINE0": "0 H-2A R/B",
    "TLE_LINE1": "1 43682U 18084L   19220.97382694 +.00000733 +00000-0 +59071-4 0  9995",
    "TLE_LINE2": "2 43682 098.8856 016.7717 0057718 079.2501 281.5196 15.02648448042572",
    "OBJECT_ID": "2018-084L",
    "OBJECT_NUMBER": "43682",
    "SEMIMAJOR_AXIS": "6936.870",
    "PERIOD": "95.831",
    "APOGEE": "598.774",
    "PERIGEE": "518.697",
    "DECAYED": "0"
  },
  {
    "COMMENT": "GENERATED VIA SPACETRACK.ORG API",
    "ORIGINATOR": "18 SPCS",
    "NORAD_CAT_ID": "43682",
    "OBJECT_NAME": "H-2A R/B",
    "OBJECT_TYPE": "ROCKET BODY",
    "CLASSIFICATION_TYPE": "U",
    "INTLDES": "18084L",
    "EPOCH": "2019-08-09 12:09:25",
    "EPOCH_MICROSECONDS": "243488",
    "MEAN_MOTION": "15.02648948",
    "ECCENTRICITY": "0.0057824",
    "INCLINATION": "98.8859",
    "RA_OF_ASC_NODE": "17.3828",
    "ARG_OF_PERICENTER": "77.6075",
    "MEAN_ANOMALY": "283.1606",
    "EPHEMERIS_TYPE": "0",
    "ELEMENT_SET_NO": "999",
    "REV_AT_EPOCH": "4265",
    "BSTAR": "0.000056625",
    "MEAN_MOTION_DOT": "0.00000699",
    "MEAN_MOTION_DDOT": "0",
    "FILE": "2533542",
    "TLE_LINE0": "0 H-2A R/B",
    "TLE_LINE1": "1 43682U 18084L   19221.50654217  .00000699  00000-0  56625-4 0  9991",
    "TLE_LINE2": "2 43682  98.8859  17.3828 0057824  77.6075 283.1606 15.02648948 42659",
    "OBJECT_ID": "2018-084L",
    "OBJECT_NUMBER": "43682",
    "SEMIMAJOR_AXIS": "6936.869",
    "PERIOD": "95.831",
    "APOGEE": "598.846",
    "PERIGEE": "518.622",
    "DECAYED": "0"
  },
  {
    "COMMENT": "GENERATED VIA SPACETRACK.ORG API",
    "ORIGINATOR": "18 SPCS",
    "NORAD_CAT_ID": "43682",
    "OBJECT_NAME": "H-2A R/B",
    "OBJECT_TYPE": "ROCKET BODY",
    "CLASSIFICATION_TYPE": "U",
    "INTLDES": "18084L",
    "EPOCH": "2019-08-09 23:20:38",
    "EPOCH_MICROSECONDS": "446080",
    "MEAN_MOTION": "15.02649521",
    "ECCENTRICITY": "0.0057845",
    "INCLINATION": "98.8861",
    "RA_OF_ASC_NODE": "17.9171",
    "ARG_OF_PERICENTER": "76.134",
    "MEAN_ANOMALY": "284.6303",
    "EPHEMERIS_TYPE": "0",
    "ELEMENT_SET_NO": "999",
    "REV_AT_EPOCH": "4272",
    "BSTAR": "0.000055445",
    "MEAN_MOTION_DOT": "0.00000683",
    "MEAN_MOTION_DDOT": "0",
    "FILE": "2533935",
    "TLE_LINE0": "0 H-2A R/B",
    "TLE_LINE1": "1 43682U 18084L   19221.97266720 +.00000683 +00000-0 +55445-4 0  9992",
    "TLE_LINE2": "2 43682 098.8861 017.9171 0057845 076.1340 284.6303 15.02649521042727",
    "OBJECT_ID": "2018-084L",
    "OBJECT_NUMBER": "43682",
    "SEMIMAJOR_AXIS": "6936.867",
    "PERIOD": "95.831",
    "APOGEE": "598.858",
    "PERIGEE": "518.606",
    "DECAYED": "0"
  },
  {
    "COMMENT": "GENERATED VIA SPACETRACK.ORG API",
    "ORIGINATOR": "18 SPCS",
    "NORAD_CAT_ID": "43682",
    "OBJECT_NAME": "H-2A R/B",
    "OBJECT_TYPE": "ROCKET BODY",
    "CLASSIFICATION_TYPE": "U",
    "INTLDES": "18084L",
    "EPOCH": "2019-08-10 21:43:04",
    "EPOCH_MICROSECONDS": "859040",
    "MEAN_MOTION": "15.0264982",
    "ECCENTRICITY": "0.0057907",
    "INCLINATION": "98.8888",
    "RA_OF_ASC_NODE": "18.99",
    "ARG_OF_PERICENTER": "73.407",
    "MEAN_ANOMALY": "287.3499",
    "EPHEMERIS_TYPE": "0",
    "ELEMENT_SET_NO": "999",
    "REV_AT_EPOCH": "4286",
    "BSTAR": "0.000049509",
    "MEAN_MOTION_DOT": "0.00000601",
    "MEAN_MOTION_DDOT": "0",
    "FILE": "2534467",
    "TLE_LINE0": "0 H-2A R/B",
    "TLE_LINE1": "1 43682U 18084L   19222.90491735  .00000601  00000-0  49509-4 0  9996",
    "TLE_LINE2": "2 43682  98.8888  18.9900 0057907  73.4070 287.3499 15.02649820 42869",
    "OBJECT_ID": "2018-084L",
    "OBJECT_NUMBER": "43682",
    "SEMIMAJOR_AXIS": "6936.866",
    "PERIOD": "95.831",
    "APOGEE": "598.901",
    "PERIGEE": "518.562",
    "DECAYED": "0"
  },
  {
    "COMMENT": "GENERATED VIA SPACETRACK.ORG API",
    "ORIGINATOR": "18 SPCS",
    "NORAD_CAT_ID": "43682",
    "OBJECT_NAME": "H-2A R/B",
    "OBJECT_TYPE": "ROCKET BODY",
    "CLASSIFICATION_TYPE": "U",
    "INTLDES": "18084L",
    "EPOCH": "2019-08-10 23:18:58",
    "EPOCH_MICROSECONDS": "169376",
    "MEAN_MOTION": "15.02649847",
    "ECCENTRICITY": "0.0057906",
    "INCLINATION": "98.8889",
    "RA_OF_ASC_NODE": "19.0664",
    "ARG_OF_PERICENTER": "73.2077",
    "MEAN_ANOMALY": "287.5483",
    "EPHEMERIS_TYPE": "0",
    "ELEMENT_SET_NO": "999",
    "REV_AT_EPOCH": "4287",
    "BSTAR": "0.000048978",
    "MEAN_MOTION_DOT": "0.00000593",
    "MEAN_MOTION_DDOT": "0",
    "FILE": "2534570",
    "TLE_LINE0": "0 H-2A R/B",
    "TLE_LINE1": "1 43682U 18084L   19222.97150659 +.00000593 +00000-0 +48978-4 0  9999",
    "TLE_LINE2": "2 43682 098.8889 019.0664 0057906 073.2077 287.5483 15.02649847042878",
    "OBJECT_ID": "2018-084L",
    "OBJECT_NUMBER": "43682",
    "SEMIMAJOR_AXIS": "6936.866",
    "PERIOD": "95.831",
    "APOGEE": "598.900",
    "PERIGEE": "518.563",
    "DECAYED": "0"
  },
  {
    "COMMENT": "GENERATED VIA SPACETRACK.ORG API",
    "ORIGINATOR": "18 SPCS",
    "NORAD_CAT_ID": "43682",
    "OBJECT_NAME": "H-2A R/B",
    "OBJECT_TYPE": "ROCKET BODY",
    "CLASSIFICATION_TYPE": "U",
    "INTLDES": "18084L",
    "EPOCH": "2019-08-11 23:17:17",
    "EPOCH_MICROSECONDS": "868480",
    "MEAN_MOTION": "15.0265018",
    "ECCENTRICITY": "0.0057999",
    "INCLINATION": "98.8889",
    "RA_OF_ASC_NODE": "20.2112",
    "ARG_OF_PERICENTER": "69.9892",
    "MEAN_ANOMALY": "290.756",
    "EPHEMERIS_TYPE": "0",
    "ELEMENT_SET_NO": "999",
    "REV_AT_EPOCH": "4302",
    "BSTAR": "0.000041053",
    "MEAN_MOTION_DOT": "0.00000484",
    "MEAN_MOTION_DDOT": "0",
    "FILE": "2534864",
    "TLE_LINE0": "0 H-2A R/B",
    "TLE_LINE1": "1 43682U 18084L   19223.97034570 +.00000484 +00000-0 +41053-4 0  9999",
    "TLE_LINE2": "2 43682 098.8889 020.2112 0057999 069.9892 290.7560 15.02650180043021",
    "OBJECT_ID": "2018-084L",
    "OBJECT_NUMBER": "43682",
    "SEMIMAJOR_AXIS": "6936.865",
    "PERIOD": "95.831",
    "APOGEE": "598.963",
    "PERIGEE": "518.497",
    "DECAYED": "0"
  },
  {
    "COMMENT": "GENERATED VIA SPACETRACK.ORG API",
    "ORIGINATOR": "18 SPCS",
    "NORAD_CAT_ID": "43682",
    "OBJECT_NAME": "H-2A R/B",
    "OBJECT_TYPE": "ROCKET BODY",
    "CLASSIFICATION_TYPE": "U",
    "INTLDES": "18084L",
    "EPOCH": "2019-08-12 00:53:11",
    "EPOCH_MICROSECONDS": "164992",
    "MEAN_MOTION": "15.02650263",
    "ECCENTRICITY": "0.0057987",
    "INCLINATION": "98.8883",
    "RA_OF_ASC_NODE": "20.2868",
    "ARG_OF_PERICENTER": "69.8046",
    "MEAN_ANOMALY": "290.9391",
    "EPHEMERIS_TYPE": "0",
    "ELEMENT_SET_NO": "999",
    "REV_AT_EPOCH": "4303",
    "BSTAR": "0.000041015",
    "MEAN_MOTION_DOT": "0.00000483",
    "MEAN_MOTION_DDOT": "0",
    "FILE": "2534890",
    "TLE_LINE0": "0 H-2A R/B",
    "TLE_LINE1": "1 43682U 18084L   19224.03693478  .00000483  00000-0  41015-4 0  9992",
    "TLE_LINE2": "2 43682  98.8883  20.2868 0057987  69.8046 290.9391 15.02650263 43037",
    "OBJECT_ID": "2018-084L",
    "OBJECT_NUMBER": "43682",
    "SEMIMAJOR_AXIS": "6936.865",
    "PERIOD": "95.831",
    "APOGEE": "598.955",
    "PERIGEE": "518.505",
    "DECAYED": "0"
  }
]